      2.10          N: GNSS NAV DATA                        RINEX VERSION / TYPE
fic2rin                                 08/26/2024 00:59:02 PGM / RUN BY / DATE
                                                            END OF HEADER
19 24  8 25  6  0  0.0  .529175158590D-03  .511590769747D-11  .000000000000D+00
     .720000000000D+02  .352187500000D+02  .457804783693D-08 -.292833111412D+01
     .190734863281D-05  .100004281849D-01  .358745455742D-05  .515373096466D+04
     .216000000000D+05 -.121071934700D-06 -.547711917760D+00  .145286321640D-06
     .966839530347D+00  .314375000000D+03  .263189412815D+01 -.812569561070D-08
    -.112504686272D-09  .100000000000D+01  .232900000000D+04  .000000000000D+00
     .240000000000D+01  .000000000000D+00 -.153668224812D-07  .720000000000D+02
     .144000000000D+05  .400000000000D+01
23 24  8 25  6  0  0.0  .305065885186D-03  .852651282912D-11  .000000000000D+00
     .150000000000D+03 -.274062500000D+02  .377408577725D-08 -.166990857901D+01
    -.138953328133D-05  .457309384365D-02  .965595245361D-05  .515360372543D+04
     .216000000000D+05 -.175088644028D-06  .141430871131D+01 -.100582838058D-06
     .980254642741D+00  .205593750000D+03 -.296366305806D+01 -.759317342901D-08
     .352514683652D-09  .100000000000D+01  .232900000000D+04  .000000000000D+00
     .240000000000D+01  .000000000000D+00 -.838190317154D-08  .150000000000D+03
     .144000000000D+05  .400000000000D+01
28 24  8 25  6  0  0.0 -.385812483728D-03 -.145519152284D-10  .000000000000D+00
     .190000000000D+03 -.962500000000D+01  .452197407266D-08 -.250814890437D+01
    -.696629285812D-06  .347604742274D-03  .932998955250D-05  .515370233727D+04
     .216000000000D+05  .223517417908D-07 -.277889692451D+01  .353902578354D-07
     .961726982761D+00  .194625000000D+03  .143399171670D+01 -.791461538979D-08
    -.207508643568D-09  .100000000000D+01  .232900000000D+04  .000000000000D+00
     .240000000000D+01  .000000000000D+00 -.931322574615D-08  .958000000000D+03
     .144000000000D+05  .400000000000D+01
18 24  8 25  6  0  0.0 -.648815650493D-03 -.284217094304D-11  .000000000000D+00
     .137000000000D+03 -.656250000000D+02  .414445834761D-08 -.482604602350D+00
    -.366382300854D-05  .455905962735D-02  .734068453312D-05  .515360076904D+04
     .216000000000D+05  .745058059692D-07  .413072391312D+00  .931322574615D-08
     .974682017658D+00  .246250000000D+03 -.301539284637D+01 -.800069040373D-08
    -.337156901081D-09  .100000000000D+01  .232900000000D+04  .000000000000D+00
     .240000000000D+01  .000000000000D+00 -.838190317154D-08  .905000000000D+03
     .144000000000D+05  .400000000000D+01
14 24  8 25  6  0  0.0  .480266287923D-03  .864019966684D-11  .000000000000D+00
     .860000000000D+02  .904062500000D+02  .489448958942D-08 -.218477073713D+01
     .456906855106D-05  .483435695060D-02  .926479697227D-05  .515370192909D+04
     .216000000000D+05  .242143869400D-07 -.167676846960D+01 -.102445483208D-06
     .944855297770D+00  .193750000000D+03 -.285939324866D+01 -.818212653270D-08
     .112147528538D-09  .100000000000D+01  .232900000000D+04  .000000000000D+00
     .240000000000D+01  .000000000000D+00 -.791624188423D-08  .598000000000D+03
     .144000000000D+05  .400000000000D+01
11 24  8 25  6  0  0.0 -.726230442524D-03 -.511590769747D-11  .000000000000D+00
     .180000000000D+03 -.615000000000D+02  .433160900033D-08  .714970977114D+00
    -.313855707645D-05  .162491493393D-02  .659376382828D-05  .515376338196D+04
     .216000000000D+05  .111758708954D-07  .441330871797D+00  .745058059692D-08
     .966402252430D+00  .255656250000D+03 -.256191325184D+01 -.812212403335D-08
    -.262510934634D-09  .100000000000D+01  .232900000000D+04  .000000000000D+00
     .240000000000D+01  .000000000000D+00 -.884756445885D-08  .436000000000D+03
     .144000000000D+05  .400000000000D+01
22 24  8 25  5 59 44.0 -.549256801605D-04 -.397903932026D-11  .000000000000D+00
     .450000000000D+02  .858750000000D+02  .455876131928D-08  .197121872504D+01
     .444427132607D-05  .141592876753D-01  .844337046146D-05  .515369478035D+04
     .215840000000D+05  .214204192162D-06 -.160982728397D+01  .204890966415D-07
     .960279004001D+00  .213781250000D+03 -.112291952565D+01 -.783425489959D-08
    -.167864135072D-10  .100000000000D+01  .232900000000D+04  .000000000000D+00
     .240000000000D+01  .000000000000D+00 -.111758708954D-07  .450000000000D+02
     .144600000000D+05  .400000000000D+01
30 24  8 25  5 59 44.0 -.333793926984D-03  .693489710102D-11  .000000000000D+00
     .190000000000D+02 -.145625000000D+02  .512307053931D-08 -.150412431810D+01
    -.847503542900D-06  .718296295963D-02  .891648232937D-05  .515359081841D+04
     .215840000000D+05  .115483999252D-06 -.274759686325D+01 -.707805156708D-07
     .935782098441D+00  .188781250000D+03 -.244659342532D+01 -.821355641331D-08
    -.147148986489D-09  .100000000000D+01  .232900000000D+04  .000000000000D+00
     .240000000000D+01  .000000000000D+00  .419095158577D-08  .190000000000D+02
     .182100000000D+05  .400000000000D+01
12 24  8 25  5 59 44.0 -.532983802259D-03 -.284217094304D-11  .000000000000D+00
     .100000000000D+02  .885000000000D+02  .457054752451D-08 -.208882956612D+01
     .472739338875D-05  .866783200763D-02  .809878110886D-05  .515360944557D+04
     .215840000000D+05  .128522515297D-06 -.163088918620D+01  .819563865662D-07
     .961513196301D+00  .223625000000D+03  .146231957169D+01 -.792318717541D-08
     .154649298907D-09  .100000000000D+01  .232900000000D+04  .000000000000D+00
     .240000000000D+01  .000000000000D+00 -.125728547573D-07  .100000000000D+02
     .188700000000D+05  .400000000000D+01
1  24  8 25  5 59 44.0  .213979743421D-03 -.875388650456D-11  .000000000000D+00
     .190000000000D+02  .111156250000D+03  .584310053145D-08  .291469070941D+01
     .549107789993D-05  .133787157247D-01  .920146703720D-05  .515361539841D+04
     .215840000000D+05  .484287738800D-07 -.168415672085D+01 -.197440385818D-06
     .953577788822D+00  .198531250000D+03  .103541461845D+01 -.783354058412D-08
     .789318592573D-10  .100000000000D+01  .232900000000D+04  .000000000000D+00
     .240000000000D+01  .630000000000D+02 -.195577740669D-07  .190000000000D+02
     .214500000000D+05  .400000000000D+01
1  24  8 25  7 59 44.0  .213916879147D-03 -.875388650456D-11  .000000000000D+00
     .200000000000D+02  .959062500000D+02  .592596112578D-08 -.231831759251D+01
     .466965138912D-05  .133819942130D-01  .805594027042D-05  .515360923004D+04
     .287840000000D+05  .175088644028D-06 -.168421402920D+01 -.651925802231D-07
     .953578736793D+00  .218000000000D+03  .103546670858D+01 -.787532803902D-08
     .213580325049D-09  .100000000000D+01  .232900000000D+04  .000000000000D+00
     .240000000000D+01  .630000000000D+02 -.195577740669D-07  .200000000000D+02
     .216000000000D+05  .400000000000D+01
12 24  8 25  7 59 44.0 -.533004757017D-03 -.284217094304D-11  .000000000000D+00
     .510000000000D+02  .840625000000D+02  .462233539597D-08 -.103875237138D+01
     .460632145405D-05  .866738928016D-02  .902079045773D-05  .515360709000D+04
     .287840000000D+05 -.800937414169D-07 -.163094681054D+01  .152736902237D-06
     .961513306020D+00  .213437500000D+03  .146246316002D+01 -.813033866124D-08
     .137148569931D-09  .100000000000D+01  .232900000000D+04  .000000000000D+00
     .240000000000D+01  .000000000000D+00 -.125728547573D-07  .510000000000D+02
     .216000000000D+05  .400000000000D+01
